STARLINK-4434           
1 53501U 22099AN  26068.87023785  .00000490  00000+0  42661-4 0  9993
2 53501  97.6017 190.4041 0003252  88.8351 271.3246 15.01260791196014
LEMUR-2-ALISIA          
1 62706U 25009DB  26068.73770453  .00009177  00000+0  72005-3 0  9995
2 62706  97.7037 151.6973 0006582 159.9869 200.1615 15.01147598 85230
